[{"OBJECT_NAME":"OBJECT E","OBJECT_ID":"2024-174E","EPOCH":"2026-03-09T23:40:24.424320","MEAN_MOTION":15.26241811,"ECCENTRICITY":0.00122518,"INCLINATION":97.4515,"RA_OF_ASC_NODE":80.1669,"ARG_OF_PERICENTER":217.7524,"MEAN_ANOMALY":142.2856,"EPHEMERIS_TYPE":0,"CLASSIFICATION_TYPE":"U","NORAD_CAT_ID":61242,"ELEMENT_SET_NO":999,"REV_AT_EPOCH":8070,"BSTAR":0.00031155901,"MEAN_MOTION_DOT":8.013e-5,"MEAN_MOTION_DDOT":0},{"OBJECT_NAME":"STARLINK-35675","OBJECT_ID":"2025-303AB","EPOCH":"2026-03-09T01:25:30.854496","MEAN_MOTION":15.27571478,"ECCENTRICITY":0.00016039,"INCLINATION":42.9996,"RA_OF_ASC_NODE":314.7172,"ARG_OF_PERICENTER":272.1324,"MEAN_ANOMALY":87.9344,"EPHEMERIS_TYPE":0,"CLASSIFICATION_TYPE":"U","NORAD_CAT_ID":67188,"ELEMENT_SET_NO":999,"REV_AT_EPOCH":1263,"BSTAR":0.00098100462,"MEAN_MOTION_DOT":0.00026824,"MEAN_MOTION_DDOT":0}]
